[{"OBJECT_NAME":"YAOGAN-39 01A","OBJECT_ID":"2023-130A","EPOCH":"2026-03-07T01:49:05.647584","MEAN_MOTION":15.22847308,"ECCENTRICITY":0.00044592,"INCLINATION":35.005,"RA_OF_ASC_NODE":50.8898,"ARG_OF_PERICENTER":284.3505,"MEAN_ANOMALY":75.6714,"EPHEMERIS_TYPE":0,"CLASSIFICATION_TYPE":"U","NORAD_CAT_ID":57727,"ELEMENT_SET_NO":999,"REV_AT_EPOCH":14013,"BSTAR":0.00021092853,"MEAN_MOTION_DOT":5.026e-5,"MEAN_MOTION_DDOT":0},{"OBJECT_NAME":"COSMOS 2251 DEB","OBJECT_ID":"1993-036AUQ","EPOCH":"2026-03-03T09:54:29.808000","MEAN_MOTION":15.20399634,"ECCENTRICITY":0.00017924,"INCLINATION":74.0063,"RA_OF_ASC_NODE":215.2278,"ARG_OF_PERICENTER":345.5252,"MEAN_ANOMALY":40.7842,"EPHEMERIS_TYPE":0,"CLASSIFICATION_TYPE":"U","NORAD_CAT_ID":35901,"ELEMENT_SET_NO":999,"REV_AT_EPOCH":87347,"BSTAR":0.0053747812,"MEAN_MOTION_DOT":0.00119078,"MEAN_MOTION_DDOT":0}]
